{"type":"FeatureCollection","features":[{"type":"Feature","geometry":{"geodesic":false,"type":"Polygon","coordinates":[[[1.078291,49.413095],[1.07739,49.412341],[1.078634,49.412146],[1.079407,49.412732],[1.078291,49.413095]]]},"id":"1_1_1_1_0","properties":{"class":0}},{"type":"Feature","geometry":{"geodesic":false,"type":"Polygon","coordinates":[[[1.116486,49.412704],[1.118546,49.412704],[1.118546,49.412872],[1.116486,49.412872],[1.116486,49.412704]]]},"id":"1_1_1_2_0","properties":{"class":1}},{"type":"Feature","geometry":{"geodesic":false,"type":"Polygon","coordinates":[[[1.074944,49.414254],[1.07445,49.414017],[1.076896,49.413388],[1.077197,49.413723],[1.074944,49.414254]]]},"id":"1_1_2_0","properties":{"class":2}},{"type":"Feature","geometry":{"geodesic":false,"type":"Polygon","coordinates":[[[1.151161,49.426663],[1.154337,49.427835],[1.147642,49.429677],[1.143866,49.428114],[1.138887,49.427835],[1.140175,49.426272],[1.148758,49.427724],[1.151161,49.426663]]]},"id":"1_2_0","properties":{"class":3}},{"type":"Feature","geometry":{"geodesic":false,"type":"Polygon","coordinates":[[[1.155839,49.394915],[1.157856,49.393519],[1.158457,49.396033],[1.157513,49.396507],[1.156869,49.396228],[1.155839,49.394915]]]},"id":"2_0","properties":{"class":4}}]}